SCD 1                   
1 22490U 93009B   26066.52721619  .00000599  00000+0  11284-3 0  9992
2 22490  24.9687 115.2405 0042127 141.7509   4.5938 14.46066577746389
TECHSAT 1B (GO-32)      
1 25397U 98043D   26066.49226706  .00000136  00000+0  78799-4 0  9999
2 25397  99.0027  56.7110 0002008 122.9565 237.1806 14.24405496436857
SCD 2                   
1 25504U 98060A   26066.48925909  .00000575  00000+0  10946-3 0  9994
2 25504  24.9966 339.3118 0016944 128.0762  33.1330 14.45481847445598
DLR-TUBSAT              
1 25757U 99029B   26066.54140626  .00000228  00000+0  67790-4 0  9997
2 25757  98.6664  58.7218 0013228 301.8827  58.1080 14.52396782418498
TERRA                   
1 25994U 99068A   26066.60337939  .00000605  00000+0  13241-3 0  9995
2 25994  97.9598 120.1178 0002573 156.4312 323.6835 14.61012261394771
MAROC-TUBSAT            
1 27004U 01056D   26066.43422906 -.00000026  00000+0  23241-4 0  9999
2 27004  99.8006 241.3919 0020344  45.2286   8.3645 13.70257852212254
AQUA                    
1 27424U 02022A   26066.63004551  .00001523  00000+0  31373-3 0  9999
2 27424  98.4173  33.9574 0000578  71.1611 343.2161 14.61971555268438
IRS-P6 (RESOURCESAT-1)  
1 28051U 03046A   26066.65668200  .00000462  00000+0  16926-3 0  9990
2 28051  98.2044 108.0815 0062973 287.3701 182.8950 14.36116642165956
SHIYAN-1 (SY-1)         
1 28220U 04012A   26066.18752149  .00015609  00000+0  52411-3 0  9994
2 28220  97.8769 137.8180 0006091  32.3890 327.7722 15.30942020195473
AURA                    
1 28376U 04026A   26066.57413655  .00001503  00000+0  31533-3 0  9990
2 28376  98.3308  22.2633 0001027  82.2153 277.9164 14.61143680151375
IRS-P5 (CARTOSAT-1)     
1 28649U 05017A   26066.60086680  .00002245  00000+0  23386-3 0  9993
2 28649  97.5414  94.2411 0002393  71.7905 288.3574 14.90756402128688
SINAH 1                 
1 28893U 05043D   26066.63603692  .00000733  00000+0  14897-3 0  9991
2 28893  98.2680 200.4589 0013548 231.2060 128.7933 14.64070866 85668
RESURS-DK 1             
1 29228U 06021A   26066.61786594  .00004350  00000+0  25373-3 0  9992
2 29228  69.9312 242.3824 0002097 163.3710 196.7525 15.12726347 87210
ARIRANG-2 (KOMPSAT-2)   
1 29268U 06031A   26066.64116284  .00000426  00000+0  88501-4 0  9996
2 29268  97.8295 255.9934 0015363  39.9615  49.4685 14.64586224 46612
LAPAN-TUBSAT            
1 29709U 07001A   26066.57021175  .00000541  00000+0  68696-4 0  9991
2 29709  98.1331  63.5224 0012632 150.3578 209.8355 14.85826763 36066
HAIYANG-1B              
1 31113U 07010A   26066.54997331  .00000167  00000+0  79288-4 0  9999
2 31113  98.3427  52.3770 0014204 138.7207 221.5053 14.30998690986096
COSMO-SKYMED 1          
1 31598U 07023A   26066.59172755  .00005107  00000+0  45453-3 0  9995
2 31598  97.8866 257.6068 0001029 100.3848 259.7489 14.96515354 14598
