[{"OBJECT_NAME":"SCD 1","OBJECT_ID":"1993-009B","EPOCH":"2026-03-07T12:39:11.478816","MEAN_MOTION":14.46066577,"ECCENTRICITY":0.00421271,"INCLINATION":24.9687,"RA_OF_ASC_NODE":115.2405,"ARG_OF_PERICENTER":141.7509,"MEAN_ANOMALY":4.5938,"EPHEMERIS_TYPE":0,"CLASSIFICATION_TYPE":"U","NORAD_CAT_ID":22490,"ELEMENT_SET_NO":999,"REV_AT_EPOCH":74638,"BSTAR":0.00011283718,"MEAN_MOTION_DOT":5.99e-6,"MEAN_MOTION_DDOT":0},{"OBJECT_NAME":"TECHSAT 1B (GO-32)","OBJECT_ID":"1998-043D","EPOCH":"2026-03-07T11:48:51.873984","MEAN_MOTION":14.24405496,"ECCENTRICITY":0.00020084,"INCLINATION":99.0027,"RA_OF_ASC_NODE":56.711,"ARG_OF_PERICENTER":122.9565,"MEAN_ANOMALY":237.1806,"EPHEMERIS_TYPE":0,"CLASSIFICATION_TYPE":"U","NORAD_CAT_ID":25397,"ELEMENT_SET_NO":999,"REV_AT_EPOCH":43685,"BSTAR":7.8798833e-5,"MEAN_MOTION_DOT":1.36e-6,"MEAN_MOTION_DDOT":0},{"OBJECT_NAME":"SCD 2","OBJECT_ID":"1998-060A","EPOCH":"2026-03-07T11:44:31.985376","MEAN_MOTION":14.45481847,"ECCENTRICITY":0.00169445,"INCLINATION":24.9966,"RA_OF_ASC_NODE":339.3118,"ARG_OF_PERICENTER":128.0762,"MEAN_ANOMALY":33.133,"EPHEMERIS_TYPE":0,"CLASSIFICATION_TYPE":"U","NORAD_CAT_ID":25504,"ELEMENT_SET_NO":999,"REV_AT_EPOCH":44559,"BSTAR":0.00010945948,"MEAN_MOTION_DOT":5.75e-6,"MEAN_MOTION_DDOT":0},{"OBJECT_NAME":"DLR-TUBSAT","OBJECT_ID":"1999-029B","EPOCH":"2026-03-07T12:59:37.500864","MEAN_MOTION":14.52396782,"ECCENTRICITY":0.00132283,"INCLINATION":98.6664,"RA_OF_ASC_NODE":58.7218,"ARG_OF_PERICENTER":301.8827,"MEAN_ANOMALY":58.108,"EPHEMERIS_TYPE":0,"CLASSIFICATION_TYPE":"U","NORAD_CAT_ID":25757,"ELEMENT_SET_NO":999,"REV_AT_EPOCH":41849,"BSTAR":6.7789743e-5,"MEAN_MOTION_DOT":2.28e-6,"MEAN_MOTION_DDOT":0},{"OBJECT_NAME":"TERRA","OBJECT_ID":"1999-068A","EPOCH":"2026-03-07T14:28:51.979296","MEAN_MOTION":14.61012261,"ECCENTRICITY":0.00025739,"INCLINATION":97.9598,"RA_OF_ASC_NODE":120.1178,"ARG_OF_PERICENTER":156.4312,"MEAN_ANOMALY":323.6835,"EPHEMERIS_TYPE":0,"CLASSIFICATION_TYPE":"U","NORAD_CAT_ID":25994,"ELEMENT_SET_NO":999,"REV_AT_EPOCH":39477,"BSTAR":0.00013241389,"MEAN_MOTION_DOT":6.05e-6,"MEAN_MOTION_DDOT":0},{"OBJECT_NAME":"MAROC-TUBSAT","OBJECT_ID":"2001-056D","EPOCH":"2026-03-07T10:25:17.390784","MEAN_MOTION":13.70257852,"ECCENTRICITY":0.00203448,"INCLINATION":99.8006,"RA_OF_ASC_NODE":241.3919,"ARG_OF_PERICENTER":45.2286,"MEAN_ANOMALY":8.3645,"EPHEMERIS_TYPE":0,"CLASSIFICATION_TYPE":"U","NORAD_CAT_ID":27004,"ELEMENT_SET_NO":999,"REV_AT_EPOCH":21225,"BSTAR":2.3241213e-5,"MEAN_MOTION_DOT":-2.6e-7,"MEAN_MOTION_DDOT":0},{"OBJECT_NAME":"AQUA","OBJECT_ID":"2002-022A","EPOCH":"2026-03-07T15:07:15.932064","MEAN_MOTION":14.61971555,"ECCENTRICITY":5.786e-5,"INCLINATION":98.4173,"RA_OF_ASC_NODE":33.9574,"ARG_OF_PERICENTER":71.1611,"MEAN_ANOMALY":343.2161,"EPHEMERIS_TYPE":0,"CLASSIFICATION_TYPE":"U","NORAD_CAT_ID":27424,"ELEMENT_SET_NO":999,"REV_AT_EPOCH":26843,"BSTAR":0.00031372685,"MEAN_MOTION_DOT":1.523e-5,"MEAN_MOTION_DDOT":0},{"OBJECT_NAME":"IRS-P6 (RESOURCESAT-1)","OBJECT_ID":"2003-046A","EPOCH":"2026-03-07T15:45:37.324800","MEAN_MOTION":14.36116642,"ECCENTRICITY":0.00629732,"INCLINATION":98.2044,"RA_OF_ASC_NODE":108.0815,"ARG_OF_PERICENTER":287.3701,"MEAN_ANOMALY":182.895,"EPHEMERIS_TYPE":0,"CLASSIFICATION_TYPE":"U","NORAD_CAT_ID":28051,"ELEMENT_SET_NO":999,"REV_AT_EPOCH":16595,"BSTAR":0.00016925503,"MEAN_MOTION_DOT":4.62e-6,"MEAN_MOTION_DDOT":0},{"OBJECT_NAME":"SHIYAN-1 (SY-1)","OBJECT_ID":"2004-012A","EPOCH":"2026-03-07T04:30:01.856736","MEAN_MOTION":15.3094202,"ECCENTRICITY":0.00060918,"INCLINATION":97.8769,"RA_OF_ASC_NODE":137.818,"ARG_OF_PERICENTER":32.389,"MEAN_ANOMALY":327.7722,"EPHEMERIS_TYPE":0,"CLASSIFICATION_TYPE":"U","NORAD_CAT_ID":28220,"ELEMENT_SET_NO":999,"REV_AT_EPOCH":19547,"BSTAR":0.00052411397,"MEAN_MOTION_DOT":0.00015609,"MEAN_MOTION_DDOT":0},{"OBJECT_NAME":"AURA","OBJECT_ID":"2004-026A","EPOCH":"2026-03-07T13:46:45.397920","MEAN_MOTION":14.6114368,"ECCENTRICITY":0.00010272,"INCLINATION":98.3308,"RA_OF_ASC_NODE":22.2633,"ARG_OF_PERICENTER":82.2153,"MEAN_ANOMALY":277.9164,"EPHEMERIS_TYPE":0,"CLASSIFICATION_TYPE":"U","NORAD_CAT_ID":28376,"ELEMENT_SET_NO":999,"REV_AT_EPOCH":15137,"BSTAR":0.00031532809,"MEAN_MOTION_DOT":1.503e-5,"MEAN_MOTION_DDOT":0},{"OBJECT_NAME":"IRS-P5 (CARTOSAT-1)","OBJECT_ID":"2005-017A","EPOCH":"2026-03-07T14:25:14.891520","MEAN_MOTION":14.90756402,"ECCENTRICITY":0.00023932,"INCLINATION":97.5414,"RA_OF_ASC_NODE":94.2411,"ARG_OF_PERICENTER":71.7905,"MEAN_ANOMALY":288.3574,"EPHEMERIS_TYPE":0,"CLASSIFICATION_TYPE":"U","NORAD_CAT_ID":28649,"ELEMENT_SET_NO":999,"REV_AT_EPOCH":12868,"BSTAR":0.00023386462,"MEAN_MOTION_DOT":2.245e-5,"MEAN_MOTION_DDOT":0},{"OBJECT_NAME":"SINAH 1","OBJECT_ID":"2005-043D","EPOCH":"2026-03-07T15:15:53.589888","MEAN_MOTION":14.64070866,"ECCENTRICITY":0.0013548,"INCLINATION":98.268,"RA_OF_ASC_NODE":200.4589,"ARG_OF_PERICENTER":231.206,"MEAN_ANOMALY":128.7933,"EPHEMERIS_TYPE":0,"CLASSIFICATION_TYPE":"U","NORAD_CAT_ID":28893,"ELEMENT_SET_NO":999,"REV_AT_EPOCH":8566,"BSTAR":0.00014897193,"MEAN_MOTION_DOT":7.33e-6,"MEAN_MOTION_DDOT":0},{"OBJECT_NAME":"RESURS-DK 1","OBJECT_ID":"2006-021A","EPOCH":"2026-03-07T14:49:43.617216","MEAN_MOTION":15.12726347,"ECCENTRICITY":0.00020975,"INCLINATION":69.9312,"RA_OF_ASC_NODE":242.3824,"ARG_OF_PERICENTER":163.371,"MEAN_ANOMALY":196.7525,"EPHEMERIS_TYPE":0,"CLASSIFICATION_TYPE":"U","NORAD_CAT_ID":29228,"ELEMENT_SET_NO":999,"REV_AT_EPOCH":8721,"BSTAR":0.00025372503,"MEAN_MOTION_DOT":4.35e-5,"MEAN_MOTION_DDOT":0},{"OBJECT_NAME":"ARIRANG-2 (KOMPSAT-2)","OBJECT_ID":"2006-031A","EPOCH":"2026-03-07T15:23:16.469376","MEAN_MOTION":14.64586224,"ECCENTRICITY":0.00153635,"INCLINATION":97.8295,"RA_OF_ASC_NODE":255.9934,"ARG_OF_PERICENTER":39.9615,"MEAN_ANOMALY":49.4685,"EPHEMERIS_TYPE":0,"CLASSIFICATION_TYPE":"U","NORAD_CAT_ID":29268,"ELEMENT_SET_NO":999,"REV_AT_EPOCH":4661,"BSTAR":8.8500585e-5,"MEAN_MOTION_DOT":4.26e-6,"MEAN_MOTION_DDOT":0},{"OBJECT_NAME":"LAPAN-TUBSAT","OBJECT_ID":"2007-001A","EPOCH":"2026-03-07T13:41:06.295200","MEAN_MOTION":14.85826763,"ECCENTRICITY":0.00126324,"INCLINATION":98.1331,"RA_OF_ASC_NODE":63.5224,"ARG_OF_PERICENTER":150.3578,"MEAN_ANOMALY":209.8355,"EPHEMERIS_TYPE":0,"CLASSIFICATION_TYPE":"U","NORAD_CAT_ID":29709,"ELEMENT_SET_NO":999,"REV_AT_EPOCH":3606,"BSTAR":6.869592e-5,"MEAN_MOTION_DOT":5.41e-6,"MEAN_MOTION_DDOT":0},{"OBJECT_NAME":"HAIYANG-1B","OBJECT_ID":"2007-010A","EPOCH":"2026-03-07T13:11:57.693984","MEAN_MOTION":14.3099869,"ECCENTRICITY":0.00142043,"INCLINATION":98.3427,"RA_OF_ASC_NODE":52.377,"ARG_OF_PERICENTER":138.7207,"MEAN_ANOMALY":221.5053,"EPHEMERIS_TYPE":0,"CLASSIFICATION_TYPE":"U","NORAD_CAT_ID":31113,"ELEMENT_SET_NO":999,"REV_AT_EPOCH":98609,"BSTAR":7.928762e-5,"MEAN_MOTION_DOT":1.67e-6,"MEAN_MOTION_DDOT":0},{"OBJECT_NAME":"COSMO-SKYMED 1","OBJECT_ID":"2007-023A","EPOCH":"2026-03-07T14:12:05.260320","MEAN_MOTION":14.96515354,"ECCENTRICITY":0.00010295,"INCLINATION":97.8866,"RA_OF_ASC_NODE":257.6068,"ARG_OF_PERICENTER":100.3848,"MEAN_ANOMALY":259.7489,"EPHEMERIS_TYPE":0,"CLASSIFICATION_TYPE":"U","NORAD_CAT_ID":31598,"ELEMENT_SET_NO":999,"REV_AT_EPOCH":1459,"BSTAR":0.00045453477,"MEAN_MOTION_DOT":5.107e-5,"MEAN_MOTION_DDOT":0}]
